[{"OBJECT_NAME":"TEVEL2-3","OBJECT_ID":"2025-052J","EPOCH":"2026-03-09T15:29:22.754400","MEAN_MOTION":15.30377031,"ECCENTRICITY":0.0004761,"INCLINATION":97.3994,"RA_OF_ASC_NODE":324.7775,"ARG_OF_PERICENTER":105.7353,"MEAN_ANOMALY":254.4413,"EPHEMERIS_TYPE":0,"CLASSIFICATION_TYPE":"U","NORAD_CAT_ID":63218,"ELEMENT_SET_NO":999,"REV_AT_EPOCH":5485,"BSTAR":0.00069446,"MEAN_MOTION_DOT":0.00020365,"MEAN_MOTION_DDOT":0},{"OBJECT_NAME":"STARLINK-34860","OBJECT_ID":"2025-190G","EPOCH":"2026-03-09T13:17:54.976128","MEAN_MOTION":15.30190653,"ECCENTRICITY":7.806e-5,"INCLINATION":53.1577,"RA_OF_ASC_NODE":168.8627,"ARG_OF_PERICENTER":68.5983,"MEAN_ANOMALY":291.51,"EPHEMERIS_TYPE":0,"CLASSIFICATION_TYPE":"U","NORAD_CAT_ID":65357,"ELEMENT_SET_NO":999,"REV_AT_EPOCH":2926,"BSTAR":0.00084197603,"MEAN_MOTION_DOT":0.00024653,"MEAN_MOTION_DDOT":0}]
