TEVEL2-3                
1 63218U 25052J   26068.64540225  .00020365  00000+0  69446-3 0  9991
2 63218  97.3994 324.7775 0004761 105.7353 254.4413 15.30377031 54855
STARLINK-34860          
1 65357U 25190G   26068.55410852  .00024653  00000+0  84198-3 0  9997
2 65357  53.1577 168.8627 0000780  68.5983 291.5100 15.30190653 29268
